NORAD_CAT_ID,OBJECT_NAME,OBJECT_TYPE,EPOCH,MEAN_MOTION,ECCENTRICITY,INCLINATION,RA_OF_ASC_NODE,ARG_OF_PERICENTER,MEAN_ANOMALY,BSTAR,MEAN_MOTION_DOT,MEAN_MOTION_DDOT,TLE_LINE0,TLE_LINE1,TLE_LINE2,SEMIMAJOR_AXIS,PERIOD,APOGEE,PERIGEE,DECAYED
52999.0,STARLINK-4217,PAYLOAD,2024-03-02 11:44:03,15.08825089,0.000165,53.2179,163.5442,98.7831,261.3348,-0.00013476,-2.431e-05,0.0,0 STARLINK-4217,1 52999U 22076P   24062.48892778 -.00002431  00000-0 -13476-3 0  9994,2 52999  53.2179 163.5442 0001650  98.7831 261.3348 15.08825089 92022,6917.926,95.438,540.932,538.65,0.0
52999.0,STARLINK-4217,PAYLOAD,2024-03-02 13:19:26,15.08825923,0.0001663,53.2182,163.247,97.9007,262.2174,-0.00012557,-2.285e-05,0.0,0 STARLINK-4217,1 52999U 22076P   24062.55516768 -.00002285  00000-0 -12557-3 0  9990,2 52999  53.2182 163.2470 0001663  97.9007 262.2174 15.08825923 91566,6917.923,95.438,540.939,538.638,0.0
52999.0,STARLINK-4217,PAYLOAD,2024-03-03 11:34:48,15.08883042,0.0001351,53.2181,159.0835,58.5792,301.5332,-0.00050541,-8.332e-05,0.0,0 STARLINK-4217,1 52999U 22076P   24063.48250571 -.00008332  00000-0 -50541-3 0  9994,2 52999  53.2181 159.0835 0001351  58.5792 301.5332 15.08883042 92178,6917.749,95.435,540.548,538.679,0.0
52999.0,STARLINK-4217,PAYLOAD,2024-03-03 13:10:11,15.08886611,0.0001489,53.2184,158.7859,93.4987,266.6175,-0.00047309,-7.819e-05,0.0,0 STARLINK-4217,1 52999U 22076P   24063.54873977 -.00007819  00000-0 -47309-3 0  9999,2 52999  53.2184 158.7859 0001489  93.4987 266.6175 15.08886611 91719,6917.738,95.435,540.633,538.573,0.0
52999.0,STARLINK-4217,PAYLOAD,2024-03-03 16:20:56,15.08896124,0.0001402,53.2173,158.1855,109.6606,250.4538,-0.00039655,-6.603e-05,0.0,0 STARLINK-4217,1 52999U 22076P   24063.68120757 -.00006603  00000-0 -39655-3 0  9990,2 52999  53.2173 158.1855 0001402 109.6606 250.4538 15.08896124 91736,6917.709,95.434,540.544,538.604,0.0
52999.0,STARLINK-4217,PAYLOAD,2024-03-04 13:00:57,15.08861256,0.0001445,53.2178,154.3277,91.0232,269.0925,0.00026354,3.911e-05,0.0,0 STARLINK-4217,1 52999U 22076P   24064.54233327  .00003911  00000-0  26354-3 0  9993,2 52999  53.2178 154.3277 0001445  91.0232 269.0925 15.08861256 92334,6917.815,95.436,540.68,538.681,0.0
52999.0,STARLINK-4217,PAYLOAD,2024-03-04 22:33:18,15.08839772,0.0001684,53.2178,152.5413,76.3828,283.7351,-2.6746e-06,-3.31e-06,0.0,0 STARLINK-4217,1 52999U 22076P   24064.93979367 -.00000331  00000-0 -26746-5 0  9999,2 52999  53.2178 152.5413 0001684  76.3828 283.7351 15.08839772 91926,6917.881,95.438,540.911,538.581,0.0
52999.0,STARLINK-4217,PAYLOAD,2024-03-05 11:16:24,15.08826228,0.0001667,53.2179,150.1645,104.2742,255.8436,-0.00026356,-4.479e-05,0.0,0 STARLINK-4217,1 52999U 22076P   24065.46973363 -.00004479  00000-0 -26356-3 0  9990,2 52999  53.2179 150.1645 0001667 104.2742 255.8436 15.08826228 92001,6917.922,95.438,540.941,538.634,0.0
52999.0,STARLINK-4217,PAYLOAD,2024-03-06 11:07:10,15.08846019,0.0001401,53.2182,145.7022,96.8103,263.3049,-0.00012807,-2.326e-05,0.0,0 STARLINK-4217,1 52999U 22076P   24066.46331850 -.00002326  00000-0 -12807-3 0  9995,2 52999  53.2182 145.7022 0001401  96.8103 263.3049 15.08846019 92629,6917.862,95.437,540.696,538.758,0.0
52999.0,STARLINK-4217,PAYLOAD,2024-03-06 12:42:33,15.08849346,0.0001746,53.2193,145.4078,112.7984,247.3193,-7.7416e-05,-1.52e-05,0.0,0 STARLINK-4217,1 52999U 22076P   24066.52955469 -.00001520  00000-0 -77416-4 0  9993,2 52999  53.2193 145.4078 0001746 112.7984 247.3193 15.08849346 92163,6917.852,95.437,540.925,538.509,0.0
52999.0,STARLINK-4217,PAYLOAD,2024-03-07 04:36:25,15.08823132,0.0001519,53.2167,142.4319,95.1843,264.9322,0.00027362,4.067e-05,0.0,0 STARLINK-4217,1 52999U 22076P   24067.19196384  .00004067  00000-0  27362-3 0  9991,2 52999  53.2167 142.4319 0001519  95.1843 264.9322 15.08823132 92732,6917.932,95.439,540.848,538.746,0.0
52999.0,STARLINK-4217,PAYLOAD,2024-03-07 12:33:21,15.0882759,0.00013,53.2173,140.9457,102.1849,257.9289,0.00018451,2.649e-05,0.0,0 STARLINK-4217,1 52999U 22076P   24067.52316689  .00002649  00000-0  18451-3 0  9993,2 52999  53.2173 140.9457 0001300 102.1849 257.9289 15.08827590 92318,6917.918,95.438,540.683,538.884,0.0
52999.0,STARLINK-4217,PAYLOAD,2024-03-08 04:27:12,15.08845301,0.0001288,53.2171,137.9717,105.5361,254.5773,2.1496e-05,5.4e-07,0.0,0 STARLINK-4217,1 52999U 22076P   24068.18556307  .00000054  00000-0  21496-4 0  9991,2 52999  53.2171 137.9717 0001288 105.5361 254.5773 15.08845301 92885,6917.864,95.437,540.62,538.838,0.0
52999.0,STARLINK-4217,PAYLOAD,2024-03-08 10:48:44,15.08854683,0.0001472,53.2167,136.7812,89.1474,270.9686,0.00013444,1.853e-05,0.0,0 STARLINK-4217,1 52999U 22076P   24068.45051379  .00001853  00000-0  13444-3 0  9991,2 52999  53.2167 136.7812 0001472  89.1474 270.9686 15.08854683 92923,6917.836,95.437,540.719,538.682,0.0
52999.0,STARLINK-4217,PAYLOAD,2024-03-08 21:56:26,15.08849621,0.0001388,53.2159,134.699,90.5936,269.5215,9.4121e-05,1.211e-05,0.0,0 STARLINK-4217,1 52999U 22076P   24068.91419429  .00001211  00000-0  94121-4 0  9996,2 52999  53.2159 134.6990 0001388  90.5936 269.5215 15.08849621 92527,6917.851,95.437,540.676,538.756,0.0
52999.0,STARLINK-4217,PAYLOAD,2024-03-09 10:39:31,15.08833896,0.0001144,53.2179,132.317,111.1001,249.0113,0.00018658,2.682e-05,0.0,0 STARLINK-4217,1 52999U 22076P   24069.44411978  .00002682  00000-0  18658-3 0  9999,2 52999  53.2179 132.3170 0001144 111.1001 249.0113 15.08833896 93075,6917.899,95.438,540.555,538.973,0.0
52999.0,STARLINK-4217,PAYLOAD,2024-03-10 13:41:05,15.08843465,0.0001286,53.2154,127.265,84.6375,275.4764,-3.9704e-05,-9.2e-06,0.0,0 STARLINK-4217,1 52999U 22076P   24070.57020016 -.00000920  00000-0 -39704-4 0  9995,2 52999  53.2154 127.2650 0001286  84.6375 275.4764 15.08843465 92773,6917.87,95.437,540.624,538.845,0.0
52999.0,STARLINK-4217,PAYLOAD,2024-03-11 10:21:05,15.08847079,0.0001382,53.2162,123.3978,88.5076,271.6074,0.00011671,1.57e-05,0.0,0 STARLINK-4217,1 52999U 22076P   24071.43131225  .00001570  00000-0  11671-3 0  9998,2 52999  53.2162 123.3978 0001382  88.5076 271.6074 15.08847079 92902,6917.859,95.437,540.68,538.768,0.0
52999.0,STARLINK-4217,PAYLOAD,2024-03-11 19:53:24,15.08839917,0.0001434,53.2162,121.613,88.1886,271.927,6.9964e-05,8.26e-06,0.0,0 STARLINK-4217,1 52999U 22076P   24071.82875731  .00000826  00000-0  69964-4 0  9990,2 52999  53.2162 121.6130 0001434  88.1886 271.9270 15.08839917 93438,6917.881,95.438,540.738,538.754,0.0
52999.0,STARLINK-4217,PAYLOAD,2024-03-12 08:36:30,15.08834129,0.0001506,53.2172,119.2362,83.0487,277.0677,1.71e-05,-1.6e-07,0.0,0 STARLINK-4217,1 52999U 22076P   24072.35868488 -.00000016  00000-0  17100-4 0  9997,2 52999  53.2172 119.2362 0001506  83.0487 277.0677 15.08834129 93517,6917.898,95.438,540.805,538.721,0.0
52999.0,STARLINK-4217,PAYLOAD,2024-03-12 19:44:12,15.08839274,0.0001538,53.2174,117.1549,84.0364,276.0803,2.9687e-05,1.84e-06,0.0,0 STARLINK-4217,1 52999U 22076P   24072.82236194  .00000184  00000-0  29687-4 0  9990,2 52999  53.2174 117.1549 0001538  84.0364 276.0803 15.08839274 93115,6917.883,95.438,540.812,538.684,0.0
52999.0,STARLINK-4217,PAYLOAD,2024-03-13 10:02:40,15.0884384,0.0001853,53.2178,114.4799,95.9011,264.2192,-5.4391e-05,-1.154e-05,0.0,0 STARLINK-4217,1 52999U 22076P   24073.41852226 -.00001154  00000-0 -54391-4 0  9996,2 52999  53.2178 114.4799 0001853  95.9011 264.2192 15.08843840 93671,6917.869,95.437,541.016,538.452,0.0
52999.0,STARLINK-4217,PAYLOAD,2024-03-14 06:42:41,15.0883936,0.0001607,53.2177,110.6135,91.5053,268.6123,6.9223e-05,8.14e-06,0.0,0 STARLINK-4217,1 52999U 22076P   24074.27964140  .00000814  00000-0  69223-4 0  9990,2 52999  53.2177 110.6135 0001607  91.5053 268.6123 15.08839360 93334,6917.882,95.438,540.859,538.636,0.0
52999.0,STARLINK-4217,PAYLOAD,2024-03-14 09:53:27,15.08842442,0.0001569,53.2173,110.0188,89.3392,270.778,7.5318e-05,9.11e-06,0.0,0 STARLINK-4217,1 52999U 22076P   24074.41211942  .00000911  00000-0  75318-4 0  9991,2 52999  53.2173 110.0188 0001569  89.3392 270.7780 15.08842442 93350,6917.873,95.437,540.823,538.653,0.0
52999.0,STARLINK-4217,PAYLOAD,2024-03-15 01:47:19,15.08834679,0.0001619,53.2171,107.0451,85.6813,274.4364,2.1903e-05,6.1e-07,0.0,0 STARLINK-4217,1 52999U 22076P   24075.07452695  .00000061  00000-0  21903-4 0  9993,2 52999  53.2171 107.0451 0001619  85.6813 274.4364 15.08834679 93925,6917.897,95.438,540.882,538.642,0.0
52999.0,STARLINK-4217,PAYLOAD,2024-03-15 08:08:51,15.08833989,0.000177,53.2175,105.8553,73.8271,286.2915,-3.8646e-06,-3.5e-06,0.0,0 STARLINK-4217,1 52999U 22076P   24075.33949046 -.00000350  00000-0 -38646-5 0  9999,2 52999  53.2175 105.8553 0001770  73.8271 286.2915 15.08833989 93491,6917.899,95.438,540.988,538.539,0.0
52999.0,STARLINK-4217,PAYLOAD,2024-03-16 01:38:08,15.08819354,0.0001998,53.2174,102.5872,68.3885,291.732,-0.00012073,-2.208e-05,0.0,0 STARLINK-4217,1 52999U 22076P   24076.06815084 -.00002208  00000-0 -12073-3 0  9992,2 52999  53.2174 102.5872 0001998  68.3885 291.7320 15.08819354 94076,6917.943,95.439,541.191,538.426,0.0
52999.0,STARLINK-4217,PAYLOAD,2024-03-16 07:59:41,15.08819192,0.0001978,53.2172,101.3977,69.0117,291.1086,-0.00011596,-2.132e-05,0.0,0 STARLINK-4217,1 52999U 22076P   24076.33311389 -.00002132  00000-0 -11596-3 0  9996,2 52999  53.2172 101.3977 0001978  69.0117 291.1086 15.08819192 93646,6917.944,95.439,541.177,538.441,0.0
52999.0,STARLINK-4217,PAYLOAD,2024-03-17 04:39:40,15.08840016,0.000153,53.2169,97.5265,106.9206,253.1954,0.00010659,1.409e-05,0.0,0 STARLINK-4217,1 52999U 22076P   24077.19421495  .00001409  00000-0  10659-3 0  9994,2 52999  53.2169  97.5265 0001530 106.9206 253.1954 15.08840016 94240,6917.88,95.438,540.804,538.687,0.0
52999.0,STARLINK-4217,PAYLOAD,2024-03-17 11:01:12,15.08845522,0.0001686,53.2169,96.3367,101.7503,258.3678,0.00014847,2.076e-05,0.0,0 STARLINK-4217,1 52999U 22076P   24077.45917148  .00002076  00000-0  14847-3 0  9992,2 52999  53.2169  96.3367 0001686 101.7503 258.3678 15.08845522 93814,6917.864,95.437,540.895,538.562,0.0
